[{"OBJECT_NAME":"COSMOS 2455","OBJECT_ID":"2009-063A","EPOCH":"2026-03-09T13:30:30.596832","MEAN_MOTION":13.97040814,"ECCENTRICITY":0.000641,"INCLINATION":67.1475,"RA_OF_ASC_NODE":135.1864,"ARG_OF_PERICENTER":244.9363,"MEAN_ANOMALY":115.1057,"EPHEMERIS_TYPE":0,"CLASSIFICATION_TYPE":"U","NORAD_CAT_ID":36095,"ELEMENT_SET_NO":999,"REV_AT_EPOCH":83121,"BSTAR":3.8777e-5,"MEAN_MOTION_DOT":-2.1e-7,"MEAN_MOTION_DDOT":0},{"OBJECT_NAME":"THOR ABLESTAR DEB","OBJECT_ID":"1961-015LE","EPOCH":"2026-03-09T10:05:41.460864","MEAN_MOTION":14.04877104,"ECCENTRICITY":0.00444026,"INCLINATION":65.5862,"RA_OF_ASC_NODE":88.6721,"ARG_OF_PERICENTER":136.5557,"MEAN_ANOMALY":223.9032,"EPHEMERIS_TYPE":0,"CLASSIFICATION_TYPE":"U","NORAD_CAT_ID":15558,"ELEMENT_SET_NO":999,"REV_AT_EPOCH":11026,"BSTAR":0.00016455106,"MEAN_MOTION_DOT":1.78e-6,"MEAN_MOTION_DDOT":0}]
